TEVEL2-4                
1 63213U 25052D   26068.69417973  .00020990  00000+0  70363-3 0  9998
2 63213  97.4009 325.1237 0004733  95.3468 264.8313 15.30925813 54879
STARLINK-34311          
1 64206U 25117D   26068.24299080  .00033166  00000+0  11270-2 0  9991
2 64206  53.1622  41.9398 0001292  81.7614 278.3534 15.30197645 44487
